[{"OBJECT_NAME":"AFR-1","OBJECT_ID":"2023-084AJ","EPOCH":"2026-03-09T23:02:07.499328","MEAN_MOTION":15.27543824,"ECCENTRICITY":0.00099838,"INCLINATION":97.6099,"RA_OF_ASC_NODE":203.4313,"ARG_OF_PERICENTER":334.9676,"MEAN_ANOMALY":25.1077,"EPHEMERIS_TYPE":0,"CLASSIFICATION_TYPE":"U","NORAD_CAT_ID":56964,"ELEMENT_SET_NO":999,"REV_AT_EPOCH":15207,"BSTAR":0.00024843733,"MEAN_MOTION_DOT":6.624e-5,"MEAN_MOTION_DDOT":0},{"OBJECT_NAME":"STARLINK-36037","OBJECT_ID":"2025-270AB","EPOCH":"2026-03-09T22:33:18.172224","MEAN_MOTION":15.27590044,"ECCENTRICITY":0.00013307,"INCLINATION":43.0039,"RA_OF_ASC_NODE":54.8088,"ARG_OF_PERICENTER":274.188,"MEAN_ANOMALY":85.882,"EPHEMERIS_TYPE":0,"CLASSIFICATION_TYPE":"U","NORAD_CAT_ID":66613,"ELEMENT_SET_NO":999,"REV_AT_EPOCH":1774,"BSTAR":0.0008442391,"MEAN_MOTION_DOT":0.00023049,"MEAN_MOTION_DDOT":0}]
